NORAD_CAT_ID,OBJECT_NAME,OBJECT_TYPE,EPOCH,MEAN_MOTION,ECCENTRICITY,INCLINATION,RA_OF_ASC_NODE,ARG_OF_PERICENTER,MEAN_ANOMALY,BSTAR,MEAN_MOTION_DOT,MEAN_MOTION_DDOT,TLE_LINE0,TLE_LINE1,TLE_LINE2,SEMIMAJOR_AXIS,PERIOD,APOGEE,PERIGEE,DECAYED
53184.0,STARLINK-4257,PAYLOAD,2023-12-25 14:09:37,15.08839957,0.0001234,53.2161,137.939,87.5493,272.5641,4.1154e-05,3.67e-06,0.0,0 STARLINK-4257,1 53184U 22083BE  23359.59002104  .00000367  00000-0  41154-4 0  9994,2 53184  53.2161 137.9390 0001234  87.5493 272.5641 15.08839957 80380,6917.881,95.438,540.599,538.892,0.0
53184.0,STARLINK-4257,PAYLOAD,2023-12-25 15:45:00,15.08837892,0.0001209,53.2164,137.6422,80.1356,279.9773,9.2768e-05,1.189e-05,0.0,0 STARLINK-4257,1 53184U 22083BE  23359.65626071  .00001189  00000-0  92768-4 0  9996,2 53184  53.2164 137.6422 0001209  80.1356 279.9773 15.08837892 80399,6917.887,95.438,540.588,538.915,0.0
53184.0,STARLINK-4257,PAYLOAD,2023-12-26 14:00:25,15.08836443,0.0001316,53.2163,133.4804,67.9708,292.1424,-2.3098e-05,-6.55e-06,0.0,0 STARLINK-4257,1 53184U 22083BE  23360.58362769 -.00000655  00000-0 -23098-4 0  9990,2 53184  53.2163 133.4804 0001316  67.9708 292.1424 15.08836443 80536,6917.891,95.438,540.667,538.846,0.0
53184.0,STARLINK-4257,PAYLOAD,2023-12-26 18:46:34,15.08844559,0.0001144,53.2164,132.5867,81.9425,278.1697,-1.0516e-05,-4.55e-06,0.0,0 STARLINK-4257,1 53184U 22083BE  23360.78234120 -.00000455  00000-0 -10516-4 0  9990,2 53184  53.2164 132.5867 0001144  81.9425 278.1697 15.08844559 81193,6917.866,95.437,540.523,538.94,0.0
53184.0,STARLINK-4257,PAYLOAD,2023-12-27 12:15:49,15.08838705,0.0001222,53.2166,129.3151,85.7221,274.3911,2.6772e-05,1.38e-06,0.0,0 STARLINK-4257,1 53184U 22083BE  23361.51098457  .00000138  00000-0  26772-4 0  9990,2 53184  53.2166 129.3151 0001222  85.7221 274.3911 15.08838705 81304,6917.884,95.438,540.595,538.904,0.0
53184.0,STARLINK-4257,PAYLOAD,2023-12-27 13:51:11,15.08842703,0.0001206,53.217,129.0168,89.5558,270.5572,3.4761e-05,2.65e-06,0.0,0 STARLINK-4257,1 53184U 22083BE  23361.57722204  .00000265  00000-0  34761-4 0  9998,2 53184  53.2170 129.0168 0001206  89.5558 270.5572 15.08842703 80685,6917.872,95.437,540.571,538.903,0.0
53184.0,STARLINK-4257,PAYLOAD,2023-12-28 13:41:58,15.0884413,0.000124,53.2175,124.5564,76.289,283.824,8.4941e-05,1.064e-05,0.0,0 STARLINK-4257,1 53184U 22083BE  23362.57082075  .00001064  00000-0  84941-4 0  9997,2 53184  53.2175 124.5564 0001240  76.2890 283.8240 15.08844130 80832,6917.868,95.437,540.591,538.875,0.0
53184.0,STARLINK-4257,PAYLOAD,2023-12-28 15:17:21,15.0884473,0.0001246,53.2169,124.259,88.0477,272.0658,0.00011155,1.488e-05,0.0,0 STARLINK-4257,1 53184U 22083BE  23362.63705897  .00001488  00000-0  11155-3 0  9994,2 53184  53.2169 124.2590 0001246  88.0477 272.0658 15.08844730 81479,6917.866,95.437,540.593,538.869,0.0
53184.0,STARLINK-4257,PAYLOAD,2023-12-29 11:57:24,15.08831699,0.0001385,53.2173,120.3961,53.9335,306.1785,-2.9477e-05,-7.57e-06,0.0,0 STARLINK-4257,1 53184U 22083BE  23363.49819483 -.00000757  00000-0 -29477-4 0  9993,2 53184  53.2173 120.3961 0001385  53.9335 306.1785 15.08831699 81606,6917.906,95.438,540.729,538.813,0.0
53184.0,STARLINK-4257,PAYLOAD,2023-12-29 13:32:47,15.08832049,0.0001291,53.2166,120.0986,67.0372,293.0756,-3.2505e-05,-8.05e-06,0.0,0 STARLINK-4257,1 53184U 22083BE  23363.56443434 -.00000805  00000-0 -32505-4 0  9990,2 53184  53.2166 120.0986 0001291  67.0372 293.0756 15.08832049 80987,6917.905,95.438,540.663,538.877,0.0
53184.0,STARLINK-4257,PAYLOAD,2023-12-30 11:48:10,15.08841166,0.0001202,53.2162,115.935,76.8886,283.2241,2.0219e-06,-2.56e-06,0.0,0 STARLINK-4257,1 53184U 22083BE  23364.49178964 -.00000256  00000-0  20219-5 0  9995,2 53184  53.2162 115.9350 0001202  76.8886 283.2241 15.08841166 81757,6917.877,95.437,540.573,538.91,0.0
53184.0,STARLINK-4257,PAYLOAD,2023-12-30 13:23:33,15.08843659,0.0001205,53.216,115.6366,91.4495,268.6635,1.087e-05,-1.15e-06,0.0,0 STARLINK-4257,1 53184U 22083BE  23364.55802733 -.00000115  00000-0  10870-4 0  9995,2 53184  53.2160 115.6366 0001205  91.4495 268.6635 15.08843659 81136,6917.869,95.437,540.568,538.901,0.0
53184.0,STARLINK-4257,PAYLOAD,2023-12-30 16:34:19,15.08848674,0.0001269,53.2164,115.0414,93.5746,266.5391,6.2287e-05,7.04e-06,0.0,0 STARLINK-4257,1 53184U 22083BE  23364.69050238  .00000704  00000-0  62287-4 0  9997,2 53184  53.2164 115.0414 0001269  93.5746 266.5391 15.08848674 81789,6917.854,95.437,540.597,538.841,0.0
53184.0,STARLINK-4257,PAYLOAD,2023-12-31 11:38:58,15.0882921,0.0001231,53.2168,111.472,93.346,266.7673,4.3036e-05,3.97e-06,0.0,0 STARLINK-4257,1 53184U 22083BE  23365.48539747  .00000397  00000-0  43036-4 0  9991,2 53184  53.2168 111.4720 0001231  93.3460 266.7673 15.08829210 81907,6917.913,95.438,540.63,538.927,0.0
53184.0,STARLINK-4257,PAYLOAD,2023-12-31 16:25:07,15.08836562,0.0001295,53.2168,110.5812,81.7728,278.3411,0.00010244,1.343e-05,0.0,0 STARLINK-4257,1 53184U 22083BE  23365.68411246  .00001343  00000-0  10244-3 0  9992,2 53184  53.2168 110.5812 0001295  81.7728 278.3411 15.08836562 81937,6917.891,95.438,540.652,538.86,0.0
53184.0,STARLINK-4257,PAYLOAD,2024-01-01 13:05:07,15.08845879,0.0001366,53.2172,106.7151,75.8383,284.276,2.5029e-05,1.1e-06,0.0,0 STARLINK-4257,1 53184U 22083BE  24001.54523057  .00000110  00000-0  25029-4 0  9998,2 53184  53.2172 106.7151 0001366  75.8383 284.2760 15.08845879 81434,6917.862,95.437,540.672,538.782,0.0
53184.0,STARLINK-4257,PAYLOAD,2024-01-01 16:15:53,15.08850356,0.0001339,53.217,106.1183,109.423,250.6907,4.3133e-05,3.99e-06,0.0,0 STARLINK-4257,1 53184U 22083BE  24001.67770487  .00000399  00000-0  43133-4 0  9998,2 53184  53.2170 106.1183 0001339 109.4230 250.6907 15.08850356 82084,6917.849,95.437,540.64,538.787,0.0
53184.0,STARLINK-4257,PAYLOAD,2024-01-02 11:20:32,15.08840476,0.0001379,53.2173,102.5518,98.3353,261.7796,1.9298e-05,1.9e-07,0.0,0 STARLINK-4257,1 53184U 22083BE  24002.47259336  .00000019  00000-0  19298-4 0  9996,2 53184  53.2173 102.5518 0001379  98.3353 261.7796 15.08840476 82200,6917.879,95.438,540.698,538.79,0.0
53184.0,STARLINK-4257,PAYLOAD,2024-01-02 12:55:55,15.08840222,0.0001413,53.2167,102.2563,80.6643,279.4509,2.176e-05,5.8e-07,0.0,0 STARLINK-4257,1 53184U 22083BE  24002.53883452  .00000058  00000-0  21760-4 0  9995,2 53184  53.2167 102.2563 0001413  80.6643 279.4509 15.08840222 81582,6917.88,95.438,540.722,538.767,0.0
53184.0,STARLINK-4257,PAYLOAD,2024-01-03 12:46:42,15.08840923,0.0001394,53.2167,97.7958,86.209,273.9061,-2.4235e-05,-6.74e-06,0.0,0 STARLINK-4257,1 53184U 22083BE  24003.53243634 -.00000674  00000-0 -24235-4 0  9994,2 53184  53.2167  97.7958 0001394  86.2090 273.9061 15.08840923 81731,6917.878,95.437,540.707,538.778,0.0
53184.0,STARLINK-4257,PAYLOAD,2024-01-04 12:37:29,15.08841266,0.0001479,53.2168,93.3352,84.9559,275.1602,5.8855e-05,6.49e-06,0.0,0 STARLINK-4257,1 53184U 22083BE  24004.52603420  .00000649  00000-0  58855-4 0  9992,2 53184  53.2168  93.3352 0001479  84.9559 275.1602 15.08841266 81883,6917.877,95.437,540.765,538.718,0.0
53184.0,STARLINK-4257,PAYLOAD,2024-01-04 15:48:15,15.0884399,0.0001475,53.2169,92.7397,89.1395,270.9766,7.3828e-05,8.87e-06,0.0,0 STARLINK-4257,1 53184U 22083BE  24004.65851155  .00000887  00000-0  73828-4 0  9997,2 53184  53.2169  92.7397 0001475  89.1395 270.9766 15.08843990 82530,6917.868,95.437,540.754,538.713,0.0
53184.0,STARLINK-4257,PAYLOAD,2024-01-05 12:28:16,15.08839216,0.0001463,53.2176,88.8717,98.6591,261.4567,2.492e-05,1.09e-06,0.0,0 STARLINK-4257,1 53184U 22083BE  24005.51963779  .00000109  00000-0  24920-4 0  9995,2 53184  53.2176  88.8717 0001463  98.6591 261.4567 15.08839216 82664,6917.883,95.438,540.76,538.736,0.0
53184.0,STARLINK-4257,PAYLOAD,2024-01-06 12:19:03,15.08840741,0.0001468,53.218,84.4103,96.8122,263.3037,4.4113e-06,-2.18e-06,0.0,0 STARLINK-4257,1 53184U 22083BE  24006.51323867 -.00000218  00000-0  44113-5 0  9993,2 53184  53.2180  84.4103 0001468  96.8122 263.3037 15.08840741 82180,6917.878,95.438,540.759,538.728,0.0
53184.0,STARLINK-4257,PAYLOAD,2024-01-06 15:29:49,15.08843919,0.0001448,53.2176,83.8162,98.9157,261.1999,-1.1535e-07,-2.9e-06,0.0,0 STARLINK-4257,1 53184U 22083BE  24006.64571672 -.00000290  00000-0 -11535-6 0  9990,2 53184  53.2176  83.8162 0001448  98.9157 261.1999 15.08843919 82837,6917.868,95.437,540.735,538.732,0.0
53184.0,STARLINK-4257,PAYLOAD,2024-01-07 12:09:51,15.08835416,0.0001481,53.2178,79.9583,79.0089,281.107,9.8985e-06,-1.3e-06,0.0,0 STARLINK-4257,1 53184U 22083BE  24007.50684523 -.00000130  00000-0  98985-5 0  9991,2 53184  53.2178  79.9583 0001481  79.0089 281.1070 15.08835416 82962,6917.894,95.438,540.784,538.735,0.0
53184.0,STARLINK-4257,PAYLOAD,2024-01-08 12:00:37,15.0884555,0.0001397,53.2174,75.495,83.8065,276.3086,4.1207e-05,3.68e-06,0.0,0 STARLINK-4257,1 53184U 22083BE  24008.50043865  .00000368  00000-0  41207-4 0  9996,2 53184  53.2174  75.4950 0001397  83.8065 276.3086 15.08845550 83111,6917.863,95.437,540.695,538.762,0.0
53184.0,STARLINK-4257,PAYLOAD,2024-01-09 13:26:47,15.08849334,0.0001313,53.2166,70.733,93.2674,266.8468,8.8701e-05,1.124e-05,0.0,0 STARLINK-4257,1 53184U 22083BE  24009.56027283  .00001124  00000-0  88701-4 0  9990,2 53184  53.2166  70.7330 0001313  93.2674 266.8468 15.08849334 82640,6917.852,95.437,540.625,538.809,0.0
53184.0,STARLINK-4257,PAYLOAD,2024-01-10 03:45:16,15.0883876,0.0001859,53.2167,68.0604,93.089,267.0315,4.9228e-06,-2.1e-06,0.0,0 STARLINK-4257,1 53184U 22083BE  24010.15644276 -.00000210  00000-0  49228-5 0  9992,2 53184  53.2167  68.0604 0001859  93.0890 267.0315 15.08838760 83363,6917.884,95.438,541.035,538.463,0.0
53184.0,STARLINK-4257,PAYLOAD,2024-01-10 10:06:49,15.08837857,0.0001598,53.217,66.8712,82.052,278.0654,2.2473e-06,-2.52e-06,0.0,0 STARLINK-4257,1 53184U 22083BE  24010.42140426 -.00000252  00000-0  22473-5 0  9999,2 53184  53.2170  66.8712 0001598  82.0520 278.0654 15.08837857 82779,6917.887,95.438,540.857,538.646,0.0
